IRIDIUM 112             
1 41925U 17003J   24222.37891289  .00000214  00000+0  69349-4 0  9992
2 41925  86.3993  11.1283 0002270  99.6581 260.4871 14.34218526396266
IRIDIUM 111             
1 41926U 17003K   24222.36622319  .00000795  00000+0  27687-3 0  9990
2 41926  86.3994  11.1891 0002538  91.3064 268.8422 14.34222818396246
IRIDIUM 113             
1 42803U 17039A   24222.76480092  .00000035  00000+0  53678-5 0  9996
2 42803  86.3932 244.7861 0002564  90.6891 269.4598 14.34217538374232
IRIDIUM 123             
1 42804U 17039B   24220.71322631  .00000061  00000+0  14562-4 0  9991
2 42804  86.3941 277.1537 0002397  91.8454 268.3017 14.34218036372703
IRIDIUM 120             
1 42805U 17039C   24222.82822880 -.00000037  00000+0 -20111-4 0  9999
2 42805  86.3927 244.6298 0002116  90.6668 269.4770 14.34217195374237
IRIDIUM 115             
1 42806U 17039D   24222.79620323  .00000436  00000+0  12374-3 0  9996
2 42806  86.4462 244.6757 0002710  88.8388 271.3123 14.43289947376703
IRIDIUM 118             
1 42807U 17039E   24222.55892323  .00000140  00000+0  43031-4 0  9999
2 42807  86.3940 276.3829 0002201  95.1261 265.0186 14.34217011372968
IRIDIUM 117             
1 42808U 17039F   24222.57795117  .00000113  00000+0  33143-4 0  9998
2 42808  86.3937 276.3388 0002422  91.0257 269.1217 14.34217497372991
